STARLINK-30069          
1 56834U 23079M   26067.48212902 -.00002416  00000+0 -80472-4 0  9995
2 56834  42.9986 110.4464 0000469 272.6695  87.4103 15.26726881152740
STARLINK-31386          
1 59298U 24056C   26068.48723892  .00000032  00000+0  10709-4 0  9990
2 59298  43.0015 231.8274 0001452 278.0938  81.9748 15.27572805111129
